CORAL                   
1 67684U 98067YA  26085.01669137  .00078154  00000+0  10528-2 0  9997
2 67684  51.6305 349.9356 0012456 234.0650 125.9187 15.57054021  7336
GXIBA-1                 
1 67685U 98067YB  26085.13267936  .00043855  00000+0  67483-3 0  9995
2 67685  51.6320 349.9594 0011842 242.3548 117.6241 15.53694243  7346
UITMSAT-2               
1 67686U 98067YC  26084.92680870  .00045416  00000+0  67773-3 0  9995
2 67686  51.6335 350.8380 0008859 213.2499 146.7936 15.54556307  7313
HMU-SAT2                
1 67687U 98067YD  26085.00850953  .00040708  00000+0  63411-3 0  9991
2 67687  51.6326 350.6331 0008474 215.7508 144.2916 15.53428839  7249
LEOPARD                 
1 67688U 98067YE  26084.93269833  .00041704  00000+0  63246-3 0  9997
2 67688  51.6330 350.8765 0008632 213.0025 147.0428 15.54154330  7230
CREW DRAGON 12          
1 67796U 26031A   26085.16418549  .00013248  00000+0  25200-3 0  9995
2 67796  51.6341 350.9181 0006235 233.8862 126.1549 15.48550942558821
PROGRESS-MS 33          
1 68319U 26058A   26085.16418549  .00013248  00000+0  25200-3 0  9996
2 68319  51.6341 350.9181 0006235 233.8862 126.1549 15.48550942   331
